{
  "norad_id": 45072,
  "name": "STARLINK-1168",
  "history": [
    {
      "epoch": "2026-03-28T22:00:01.999584Z",
      "apogee_km": 476.16578850996666,
      "perigee_km": 474.2627499295304,
      "latitude_deg": 10.20008101354308,
      "longitude_deg": 20.066682837515753,
      "height_km": 475.0636425034412,
      "semi_major_axis_km": 6853.351269219748,
      "eccentricity": 0.00013884,
      "inclination_deg": 53.1586,
      "raan_deg": 168.7009,
      "arg_perigee_deg": 84.4388,
      "mean_anomaly_deg": 288.3808,
      "mean_motion_rev_day": 15.30200268
    },
    {
      "epoch": "2026-03-29T06:00:02.998944Z",
      "apogee_km": 476.14700898021056,
      "perigee_km": 474.32949386353357,
      "latitude_deg": 38.021035333596146,
      "longitude_deg": -73.88878419078104,
      "height_km": 477.7295189929371,
      "semi_major_axis_km": 6853.375251421872,
      "eccentricity": 0.0001326,
      "inclination_deg": 53.1589,
      "raan_deg": 167.1521,
      "arg_perigee_deg": 91.1649,
      "mean_anomaly_deg": 318.9775,
      "mean_motion_rev_day": 15.30192236
    },
    {
      "epoch": "2026-03-30T05:17:45.512160Z",
      "apogee_km": 476.09432840184763,
      "perigee_km": 474.24311346050945,
      "latitude_deg": -4.034104215040994e-05,
      "longitude_deg": -104.41038719963146,
      "height_km": 476.06144568853205,
      "semi_major_axis_km": 6853.305720931178,
      "eccentricity": 0.00013506,
      "inclination_deg": 53.1608,
      "raan_deg": 162.6448,
      "arg_perigee_deg": 89.6696,
      "mean_anomaly_deg": 270.4459,
      "mean_motion_rev_day": 15.30215523
    },
    {
      "epoch": "2026-03-30T14:42:03.933792Z",
      "apogee_km": 476.0666977999945,
      "perigee_km": 474.2130234747292,
      "latitude_deg": 3.535587380465386e-05,
      "longitude_deg": 112.30635841422333,
      "height_km": 475.9986190573587,
      "semi_major_axis_km": 6853.276860637361,
      "eccentricity": 0.00013524,
      "inclination_deg": 53.1604,
      "raan_deg": 160.8245,
      "arg_perigee_deg": 87.5727,
      "mean_anomaly_deg": 272.5429,
      "mean_motion_rev_day": 15.30225189
    },
    {
      "epoch": "2026-03-31T07:56:39.758208Z",
      "apogee_km": 476.00065686040034,
      "perigee_km": 474.4374063495907,
      "latitude_deg": -4.14727192180938e-05,
      "longitude_deg": -150.38842284660342,
      "height_km": 476.0268893236287,
      "semi_major_axis_km": 6853.356031604995,
      "eccentricity": 0.00011405,
      "inclination_deg": 53.1604,
      "raan_deg": 157.4872,
      "arg_perigee_deg": 83.3545,
      "mean_anomaly_deg": 276.7585,
      "mean_motion_rev_day": 15.30198673
    },
    {
      "epoch": "2026-04-01T09:01:30.542016Z",
      "apogee_km": 476.07487695481086,
      "perigee_km": 474.347833169335,
      "latitude_deg": 3.236087007411105e-05,
      "longitude_deg": -172.48559639315548,
      "height_km": 475.81876852185684,
      "semi_major_axis_km": 6853.348355062072,
      "eccentricity": 0.000126,
      "inclination_deg": 53.16,
      "raan_deg": 152.6316,
      "arg_perigee_deg": 70.322,
      "mean_anomaly_deg": 289.7917,
      "mean_motion_rev_day": 15.30201244
    },
    {
      "epoch": "2026-04-02T10:06:22.133664Z",
      "apogee_km": 476.0779487515729,
      "perigee_km": 474.40216099411555,
      "latitude_deg": 6.264139639559475e-05,
      "longitude_deg": 165.41592205525654,
      "height_km": 475.9787642845854,
      "semi_major_axis_km": 6853.377054872844,
      "eccentricity": 0.00012226,
      "inclination_deg": 53.1608,
      "raan_deg": 147.7781,
      "arg_perigee_deg": 79.0237,
      "mean_anomaly_deg": 281.0902,
      "mean_motion_rev_day": 15.30191632
    },
    {
      "epoch": "2026-04-02T21:04:44.426208Z",
      "apogee_km": 476.153444368957,
      "perigee_km": 474.3059137796117,
      "latitude_deg": 2.1167298338752932e-05,
      "longitude_deg": -1.7525334329570859,
      "height_km": 476.0581064161235,
      "semi_major_axis_km": 6853.366679074285,
      "eccentricity": 0.00013479,
      "inclination_deg": 53.1615,
      "raan_deg": 145.6532,
      "arg_perigee_deg": 85.6726,
      "mean_anomaly_deg": 274.4429,
      "mean_motion_rev_day": 15.30195107
    },
    {
      "epoch": "2026-04-03T09:37:09.337728Z",
      "apogee_km": 476.01675309533766,
      "perigee_km": 474.34659933394414,
      "latitude_deg": -4.65240877543057e-05,
      "longitude_deg": 167.20290829139074,
      "height_km": 475.8881556905153,
      "semi_major_axis_km": 6853.318676214641,
      "eccentricity": 0.00012185,
      "inclination_deg": 53.1603,
      "raan_deg": 143.2275,
      "arg_perigee_deg": 76.7248,
      "mean_anomaly_deg": 283.3888,
      "mean_motion_rev_day": 15.30211184
    }
  ]
}